$$SOE
2460714.500000000, A.D. 2025-Feb-08 00:00:00.0000, -1.775947376584396E+08, -1.630826108950208E+08, -4.255313482478223E+07,
2460721.500000000, A.D. 2025-Feb-15 00:00:00.0000, -1.707114986380449E+08, -1.731803762795871E+08, -4.270457336524548E+07,
2460728.500000000, A.D. 2025-Feb-22 00:00:00.0000, -1.632775252266378E+08, -1.827197112699628E+08, -4.271826591378967E+07,
2460735.500000000, A.D. 2025-Mar-01 00:00:00.0000, -1.553284241366722E+08, -1.916828299936370E+08, -4.259720770204552E+07,
2460742.500000000, A.D. 2025-Mar-08 00:00:00.0000, -1.468987777047534E+08, -2.000531660367256E+08, -4.234438572993261E+07,
2460749.500000000, A.D. 2025-Mar-15 00:00:00.0000, -1.380222783856849E+08, -2.078151763166022E+08, -4.196277597183581E+07,
2460756.500000000, A.D. 2025-Mar-22 00:00:00.0000, -1.287318664980180E+08, -2.149541726392436E+08, -4.145534351974006E+07,
2460763.500000000, A.D. 2025-Mar-29 00:00:00.0000, -1.190598673572411E+08, -2.214561783438264E+08, -4.082504564534156E+07,
2460770.500000000, A.D. 2025-Apr-05 00:00:00.0000, -1.090381275561821E+08, -2.273078040509061E+08, -4.007483725631201E+07,
2460777.500000000, A.D. 2025-Apr-12 00:00:00.0000, -9.869815268920861E+07, -2.324961400868056E+08, -3.920767835993005E+07,
2460784.500000000, A.D. 2025-Apr-19 00:00:00.0000, -8.807124730894585E+07, -2.370086646119325E+08, -3.822654347085848E+07,
2460791.500000000, A.D. 2025-Apr-26 00:00:00.0000, -7.718865763827306E+07, -2.408331662290493E+08, -3.713443295971580E+07,
2460798.500000000, A.D. 2025-May-03 00:00:00.0000, -6.608171788607334E+07, -2.439576800242767E+08, -3.593438637317048E+07,
2460805.500000000, A.D. 2025-May-10 00:00:00.0000, -5.478200126079083E+07, -2.463704363814737E+08, -3.462949780831376E+07,
2460812.500000000, A.D. 2025-May-17 00:00:00.0000, -4.332147690978394E+07, -2.480598223090296E+08, -3.322293347645132E+07,
2460819.500000000, A.D. 2025-May-24 00:00:00.0000, -3.173267397386018E+07, -2.490143553922741E+08, -3.171795165934707E+07,
2460826.500000000, A.D. 2025-May-31 00:00:00.0000, -2.004885379456191E+07, -2.492226705611077E+08, -3.011792533676434E+07,
2460833.500000000, A.D. 2025-Jun-07 00:00:00.0000, -8.304192278721982E+06, -2.486735194838780E+08, -2.842636771226916E+07,
2460840.500000000, A.D. 2025-Jun-14 00:00:00.0000, 3.466023424449581E+06, -2.473557847992377E+08, -2.664696091478993E+07,
2460847.500000000, A.D. 2025-Jun-21 00:00:00.0000, 1.522518319984260E+07, -2.452585145586998E+08, -2.478358875779010E+07,
2460854.500000000, A.D. 2025-Jun-28 00:00:00.0000, 2.693512825776168E+07, -2.423709778709857E+08, -2.284037427196079E+07,
2460861.500000000, A.D. 2025-Jul-05 00:00:00.0000, 3.855590778077568E+07, -2.386827431307587E+08, -2.082172235281181E+07,
2460868.500000000, A.D. 2025-Jul-12 00:00:00.0000, 5.004551458908696E+07, -2.341837841224597E+08, -1.873236823805737E+07,
2460875.500000000, A.D. 2025-Jul-19 00:00:00.0000, 6.135959797561225E+07, -2.288646202428604E+08, -1.657743276844062E+07,
2460882.500000000, A.D. 2025-Jul-26 00:00:00.0000, 7.245115211909302E+07, -2.227164980631199E+08, -1.436248550573689E+07,
2460889.500000000, A.D. 2025-Aug-02 00:00:00.0000, 8.327017873314637E+07, -2.157316232115760E+08, -1.209361692875636E+07,
2460896.500000000, A.D. 2025-Aug-09 00:00:00.0000, 9.376332322923365E+07, -2.079034537798717E+08, -9.777521072342768E+06,
2460903.500000000, A.D. 2025-Aug-16 00:00:00.0000, 1.038734848540048E+08, -1.992270690957369E+08, -7.421590094851285E+06,
2460910.500000000, A.D. 2025-Aug-23 00:00:00.0000, 1.135394032846806E+08, -1.896996307219220E+08, -5.034022341753513E+06,
2460917.500000000, A.D. 2025-Aug-30 00:00:00.0000, 1.226952269572697E+08, -1.793209554778237E+08, -2.623945423012905E+06,
2460924.500000000, A.D. 2025-Sep-06 00:00:00.0000, 1.312700707594351E+08, -1.680942241693433E+08, -2.015555278794542E+05,
2460931.500000000, A.D. 2025-Sep-13 00:00:00.0000, 1.391875764454361E+08, -1.560268578418121E+08, 2.221725850748591E+06,
2460938.500000000, A.D. 2025-Sep-20 00:00:00.0000, 1.463655026263935E+08, -1.431315974068891E+08, 4.633076871783607E+06,
2460945.500000000, A.D. 2025-Sep-27 00:00:00.0000, 1.527153810020331E+08, -1.294278223258823E+08, 7.018082828169912E+06,
2460952.500000000, A.D. 2025-Oct-04 00:00:00.0000, 1.581422890157183E+08, -1.149431499161623E+08, 9.360529017255709E+06,
2460959.500000000, A.D. 2025-Oct-11 00:00:00.0000, 1.625448131477514E+08, -9.971535868560441E+07, 1.164218466016775E+07,
2460966.500000000, A.D. 2025-Oct-18 00:00:00.0000, 1.658153070807323E+08, -8.379467311111064E+07, 1.384258818689164E+07,
2460973.500000000, A.D. 2025-Oct-25 00:00:00.0000, 1.678405858195310E+08, -6.724643176827615E+07, 1.593885104819416E+07,
2460980.500000000, A.D. 2025-Nov-01 00:00:00.0000, 1.685032406753760E+08, -5.015412941086944E+07, 1.790550676085726E+07,
2460987.500000000, A.D. 2025-Nov-08 00:00:00.0000, 1.676838073410865E+08, -3.262276791452436E+07, 1.971444458011980E+07,
2460994.500000000, A.D. 2025-Nov-15 00:00:00.0000, 1.652640613899136E+08, -1.478236083763768E+07, 2.133498291109959E+07,
2461001.500000000, A.D. 2025-Nov-22 00:00:00.0000, 1.611317354123128E+08, 3.208698284910729E+06, 2.273415500524021E+07,
2461008.500000000, A.D. 2025-Nov-29 00:00:00.0000, 1.551869205350434E+08, 2.116087755793110E+07, 2.387729535489489E+07,
2461015.500000000, A.D. 2025-Dec-06 00:00:00.0000, 1.473502909370665E+08, 3.885205099045794E+07, 2.472902258092654E+07,
2461022.500000000, A.D. 2025-Dec-13 00:00:00.0000, 1.375730318621347E+08, 5.602825335108331E+07, 2.525470181171770E+07,
2461029.500000000, A.D. 2025-Dec-20 00:00:00.0000, 1.258479202587561E+08, 7.240769182752798E+07, 2.542242392300873E+07,
2461036.500000000, A.D. 2025-Dec-27 00:00:00.0000, 1.122204088843323E+08, 8.768898207254395E+07, 2.520544829767486E+07,
2461043.500000000, A.D. 2026-Jan-03 00:00:00.0000, 9.679792254790407E+07, 1.015641321423762E+08, 2.458491804949315E+07,
2461050.500000000, A.D. 2026-Jan-10 00:00:00.0000, 7.975512555212493E+07, 1.137359118829688E+08, 2.355249667350515E+07,
2461057.500000000, A.D. 2026-Jan-17 00:00:00.0000, 6.133298297784179E+07, 1.239380101361995E+08, 2.211244840223662E+07,
2461064.500000000, A.D. 2026-Jan-24 00:00:00.0000, 4.183027122924007E+07, 1.319551531112674E+08, 2.028266546259963E+07,
2461071.500000000, A.D. 2026-Jan-31 00:00:00.0000, 2.158775809798557E+07, 1.376396828438197E+08, 1.809428884035783E+07,
2461078.500000000, A.D. 2026-Feb-07 00:00:00.0000, 9.671122363797001E+05, 1.409214417495515E+08, 1.558986275485096E+07,
2461085.500000000, A.D. 2026-Feb-14 00:00:00.0000, -1.967201337750829E+07, 1.418092241805375E+08, 1.282031052491052E+07,
2461092.500000000, A.D. 2026-Feb-21 00:00:00.0000, -3.999294876500707E+07, 1.403840411028881E+08, 9.841283122145072E+06,
2461099.500000000, A.D. 2026-Feb-28 00:00:00.0000, -5.969806919293575E+07, 1.367862107779973E+08, 6.709511996196069E+06,
2461106.500000000, A.D. 2026-Mar-07 00:00:00.0000, -7.853851830569449E+07, 1.311992144975668E+08, 3.479688190049104E+06,
2461113.500000000, A.D. 2026-Mar-14 00:00:00.0000, -9.631770900691237E+07, 1.238332044576159E+08, 2.021675619947687E+05,
2461120.500000000, A.D. 2026-Mar-21 00:00:00.0000, -1.128898054343019E+08, 1.149103141554383E+08, -3.078429563544214E+06,
2461127.500000000, A.D. 2026-Mar-28 00:00:00.0000, -1.281548449895864E+08, 1.046529384714211E+08, -6.323826357167684E+06,
2461134.500000000, A.D. 2026-Apr-04 00:00:00.0000, -1.420520959253901E+08, 9.327528613533953E+07, -9.502093350801673E+06,
2461141.500000000, A.D. 2026-Apr-11 00:00:00.0000, -1.545529006821743E+08, 8.097793198715150E+07, -1.258725180576592E+07,
2461148.500000000, A.D. 2026-Apr-18 00:00:00.0000, -1.656538344693570E+08, 6.794481240500079E+07, -1.555865288824994E+07,
2461155.500000000, A.D. 2026-Apr-25 00:00:00.0000, -1.753706370842623E+08, 5.434203836692964E+07, -1.840026489073659E+07,
2461162.500000000, A.D. 2026-May-02 00:00:00.0000, -1.837331027432900E+08, 4.031795652300967E+07, -2.109995664845819E+07,
2461169.500000000, A.D. 2026-May-09 00:00:00.0000, -1.907809386191688E+08, 2.600399777327218E+07, -2.364882917028531E+07,
2461176.500000000, A.D. 2026-May-16 00:00:00.0000, -1.965605072482671E+08, 1.151597068644208E+07, -2.604062137247452E+07,
2461183.500000000, A.D. 2026-May-23 00:00:00.0000, -2.011223269025495E+08, -3.044438244726240E+06, -2.827119856934228E+07,
2461190.500000000, A.D. 2026-May-30 00:00:00.0000, -2.045191975027204E+08, -1.758811410375731E+07, -3.033812203210040E+07,
2461197.500000000, A.D. 2026-Jun-06 00:00:00.0000, -2.068048267860918E+08, -3.203701252421436E+07, -3.224029299573872E+07,
2461204.500000000, A.D. 2026-Jun-13 00:00:00.0000, -2.080328441048557E+08, -4.632276218683108E+07, -3.397766226956230E+07,
2461211.500000000, A.D. 2026-Jun-20 00:00:00.0000, -2.082561120458477E+08, -6.038539404650606E+07, -3.555099549554094E+07,
2461218.500000000, A.D. 2026-Jun-27 00:00:00.0000, -2.075262649661419E+08, -7.417220591984272E+07, -3.696168472194973E+07,
2461225.500000000, A.D. 2026-Jul-04 00:00:00.0000, -2.058934173676414E+08, -8.763676081308992E+07, -3.821159811522419E+07,
2461232.500000000, A.D. 2026-Jul-11 00:00:00.0000, -2.034059977404793E+08, -1.007380107958286E+08, -3.930296076810507E+07,
2461239.500000000, A.D. 2026-Jul-18 00:00:00.0000, -2.001106741586204E+08, -1.134395351787848E+08, -4.023826072351896E+07,
2461246.500000000, A.D. 2026-Jul-25 00:00:00.0000, -1.960523462843421E+08, -1.257088807117396E+08, -4.102017540489303E+07,
2461253.500000000, A.D. 2026-Aug-01 00:00:00.0000, -1.912741848115080E+08, -1.375169915938257E+08, -4.165151452737268E+07,
2461260.500000000, A.D. 2026-Aug-08 00:00:00.0000, -1.858177040701866E+08, -1.488377177784443E+08, -4.213517629507138E+07,
2461267.500000000, A.D. 2026-Aug-15 00:00:00.0000, -1.797228570184831E+08, -1.596473906265980E+08, -4.247411428088328E+07,
2461274.500000000, A.D. 2026-Aug-22 00:00:00.0000, -1.730281458488656E+08, -1.699244553680509E+08, -4.267131273668636E+07,
$$EOE